NORAD_CAT_ID,OBJECT_NAME,OBJECT_TYPE,EPOCH,MEAN_MOTION,ECCENTRICITY,INCLINATION,RA_OF_ASC_NODE,ARG_OF_PERICENTER,MEAN_ANOMALY,BSTAR,MEAN_MOTION_DOT,MEAN_MOTION_DDOT,TLE_LINE0,TLE_LINE1,TLE_LINE2,SEMIMAJOR_AXIS,PERIOD,APOGEE,PERIGEE,DECAYED
51149.0,STARLINK-3360,PAYLOAD,2023-07-03 17:16:05,15.088372,9.91e-05,53.2177,28.3748,87.2907,272.8199,7.3291e-05,8.79e-06,0.0,0 STARLINK-3360,1 51149U 22005AX  23184.71950801  .00000879  00000-0  73291-4 0  9998,2 51149  53.2177  28.3748 0000991  87.2907 272.8199 15.08837200 81765,6917.889,95.438,540.44,539.068,0.0
51149.0,STARLINK-3360,PAYLOAD,2023-07-04 23:28:24,15.08844635,9.6e-05,53.2173,22.7261,84.327,275.7832,3.6718e-05,2.97e-06,0.0,0 STARLINK-3360,1 51149U 22005AX  23185.97806536  .00000297  00000-0  36718-4 0  9999,2 51149  53.2173  22.7261 0000960  84.3270 275.7832 15.08844635 81953,6917.866,95.437,540.395,539.067,0.0
51149.0,STARLINK-3360,PAYLOAD,2023-07-05 09:00:44,15.08833091,9.89e-05,53.2175,20.9424,86.2263,273.8842,2.9599e-05,1.83e-06,0.0,0 STARLINK-3360,1 51149U 22005AX  23186.37551312  .00000183  00000-0  29599-4 0  9996,2 51149  53.2175  20.9424 0000989  86.2263 273.8842 15.08833091 82012,6917.902,95.438,540.451,539.082,0.0
51149.0,STARLINK-3360,PAYLOAD,2023-07-06 07:16:08,15.08843945,9.91e-05,53.2174,16.7793,88.3092,271.8013,-6.55e-05,-1.33e-05,0.0,0 STARLINK-3360,1 51149U 22005AX  23187.30287156 -.00001330  00000-0 -65500-4 0  9991,2 51149  53.2174  16.7793 0000991  88.3092 271.8013 15.08843945 82151,6917.868,95.437,540.419,539.048,0.0
51149.0,STARLINK-3360,PAYLOAD,2023-07-07 16:39:14,15.08841012,9.62e-05,53.2175,10.5349,87.3686,272.7417,0.00014508,2.022e-05,0.0,0 STARLINK-3360,1 51149U 22005AX  23188.69391206  .00002022  00000-0  14508-3 0  9994,2 51149  53.2175  10.5349 0000962  87.3686 272.7417 15.08841012 82361,6917.877,95.437,540.408,539.077,0.0
51149.0,STARLINK-3360,PAYLOAD,2023-07-08 18:05:24,15.08841964,9.35e-05,53.2171,5.7766,94.5781,265.5318,7.6997e-05,9.38e-06,0.0,0 STARLINK-3360,1 51149U 22005AX  23189.75375244  .00000938  00000-0  76997-4 0  9991,2 51149  53.2171   5.7766 0000935  94.5781 265.5318 15.08841964 82526,6917.874,95.437,540.386,539.093,0.0
51149.0,STARLINK-3360,PAYLOAD,2023-07-09 11:34:39,15.08836287,9.85e-05,53.2172,2.5048,97.0541,263.0563,7.0641e-06,-1.75e-06,0.0,0 STARLINK-3360,1 51149U 22005AX  23190.48239672 -.00000175  00000-0  70641-5 0  9992,2 51149  53.2172   2.5048 0000985  97.0541 263.0563 15.08836287 82631,6917.892,95.438,540.438,539.075,0.0
51149.0,STARLINK-3360,PAYLOAD,2023-07-10 05:03:53,15.08843518,9.53e-05,53.2174,359.2332,111.6584,248.451,-1.0301e-05,-4.52e-06,0.0,0 STARLINK-3360,1 51149U 22005AX  23191.21103083 -.00000452  00000-0 -10301-4 0  9995,2 51149  53.2174 359.2332 0000953 111.6584 248.4510 15.08843518 82742,6917.87,95.437,540.394,539.075,0.0
51149.0,STARLINK-3360,PAYLOAD,2023-07-10 14:36:10,15.08874962,0.00011,53.2173,357.4491,89.8713,270.2405,-0.00040727,-6.77e-05,0.0,0 STARLINK-3360,1 51149U 22005AX  23191.60846043 -.00006770  00000-0 -40727-3 0  9991,2 51149  53.2173 357.4491 0001100  89.8713 270.2405 15.08874962 82802,6917.774,95.435,540.399,538.878,0.0
51149.0,STARLINK-3360,PAYLOAD,2023-07-10 20:57:44,15.08846225,0.0001016,53.2174,356.2596,104.4059,255.7046,7.4679e-05,9.01e-06,0.0,0 STARLINK-3360,1 51149U 22005AX  23191.87342689  .00000901  00000-0  74679-4 0  9999,2 51149  53.2174 356.2596 0001016 104.4059 255.7046 15.08846225 82843,6917.861,95.437,540.429,539.024,0.0
51149.0,STARLINK-3360,PAYLOAD,2023-07-11 11:16:13,15.08832674,0.0001029,53.2184,353.5835,117.9959,242.1138,6.9938e-05,8.25e-06,0.0,0 STARLINK-3360,1 51149U 22005AX  23192.46959546  .00000825  00000-0  69938-4 0  9998,2 51149  53.2184 353.5835 0001029 117.9959 242.1138 15.08832674 82937,6917.903,95.438,540.48,539.056,0.0
51149.0,STARLINK-3360,PAYLOAD,2023-07-11 17:37:45,15.08842466,0.0001083,53.2176,352.3949,99.8707,260.2407,0.00012044,1.63e-05,0.0,0 STARLINK-3360,1 51149U 22005AX  23192.73454930  .00001630  00000-0  12044-3 0  9995,2 51149  53.2176 352.3949 0001083  99.8707 260.2407 15.08842466 82974,6917.873,95.437,540.487,538.989,0.0
51149.0,STARLINK-3360,PAYLOAD,2023-07-12 11:07:00,15.08835563,0.0001133,53.2199,349.1257,101.7013,258.4106,-2.5027e-05,-6.86e-06,0.0,0 STARLINK-3360,1 51149U 22005AX  23193.46319926 -.00000686  00000-0 -25027-4 0  9999,2 51149  53.2199 349.1257 0001133 101.7013 258.4106 15.08835563 83082,6917.894,95.438,540.543,538.975,0.0
51149.0,STARLINK-3360,PAYLOAD,2023-07-13 17:19:19,15.08839975,9.82e-05,53.2187,343.4755,97.7946,262.3158,3.1108e-05,2.07e-06,0.0,0 STARLINK-3360,1 51149U 22005AX  23194.72175758  .00000207  00000-0  31108-4 0  9996,2 51149  53.2187 343.4755 0000982  97.7946 262.3158 15.08839975 83272,6917.88,95.438,540.425,539.066,0.0
51149.0,STARLINK-3360,PAYLOAD,2023-07-15 02:42:25,15.08838747,0.0001101,53.2188,337.2313,85.2476,274.8642,9.3993e-05,1.208e-05,0.0,0 STARLINK-3360,1 51149U 22005AX  23196.11279976  .00001208  00000-0  93993-4 0  9990,2 51149  53.2188 337.2313 0001101  85.2476 274.8642 15.08838747 83483,6917.884,95.438,540.511,538.988,0.0
51149.0,STARLINK-3360,PAYLOAD,2023-07-16 08:54:45,15.08833843,9.58e-05,53.2183,331.5818,88.2587,271.8515,5.8206e-05,6.39e-06,0.0,0 STARLINK-3360,1 51149U 22005AX  23197.37136460  .00000639  00000-0  58206-4 0  9994,2 51149  53.2183 331.5818 0000958  88.2587 271.8515 15.08833843 83679,6917.899,95.438,540.427,539.101,0.0
51149.0,STARLINK-3360,PAYLOAD,2023-07-16 18:27:04,15.08844042,0.0001022,53.2182,329.7958,94.5884,265.5225,3.5822e-05,2.82e-06,0.0,0 STARLINK-3360,1 51149U 22005AX  23197.76879972  .00000282  00000-0  35822-4 0  9992,2 51149  53.2182 329.7958 0001022  94.5884 265.5225 15.08844042 83733,6917.868,95.437,540.44,539.026,0.0
51149.0,STARLINK-3360,PAYLOAD,2023-07-17 08:45:32,15.08837116,9.85e-05,53.2171,327.118,91.4522,268.6583,4.735e-05,4.66e-06,0.0,0 STARLINK-3360,1 51149U 22005AX  23198.36496435  .00000466  00000-0  47350-4 0  9991,2 51149  53.2171 327.1180 0000985  91.4522 268.6583 15.08837116 83827,6917.889,95.438,540.436,539.073,0.0
51149.0,STARLINK-3360,PAYLOAD,2023-07-17 15:07:04,15.08842917,9.08e-05,53.2172,325.9287,91.1222,268.9874,9.9675e-05,1.299e-05,0.0,0 STARLINK-3360,1 51149U 22005AX  23198.62991874  .00001299  00000-0  99675-4 0  9999,2 51149  53.2172 325.9287 0000908  91.1222 268.9874 15.08842917 83866,6917.871,95.437,540.365,539.108,0.0
51149.0,STARLINK-3360,PAYLOAD,2023-07-18 08:36:20,15.08833202,0.000103,53.2176,322.6594,87.0974,273.0136,7.59e-05,9.2e-06,0.0,0 STARLINK-3360,1 51149U 22005AX  23199.35856579  .00000920  00000-0  75900-4 0  9997,2 51149  53.2176 322.6594 0001030  87.0974 273.0136 15.08833202 83977,6917.901,95.438,540.479,539.054,0.0
51149.0,STARLINK-3360,PAYLOAD,2023-07-18 14:57:52,15.08841675,0.0001042,53.218,321.4703,85.2282,274.8829,7.0445e-05,8.34e-06,0.0,0 STARLINK-3360,1 51149U 22005AX  23199.62352112  .00000834  00000-0  70445-4 0  9994,2 51149  53.2180 321.4703 0001042  85.2282 274.8829 15.08841675 84013,6917.875,95.437,540.461,539.019,0.0
51149.0,STARLINK-3360,PAYLOAD,2023-07-19 08:27:07,15.08831483,0.0001283,53.2191,318.1999,100.4934,259.6203,-5.0641e-05,-1.094e-05,0.0,0 STARLINK-3360,1 51149U 22005AX  23200.35217385 -.00001094  00000-0 -50641-4 0  9996,2 51149  53.2191 318.1999 0001283 100.4934 259.6203 15.08831483 84121,6917.906,95.438,540.659,538.884,0.0
51149.0,STARLINK-3360,PAYLOAD,2023-07-19 17:59:26,15.08838311,0.000108,53.2182,316.4145,99.2373,260.8741,-4.1331e-05,-9.45e-06,0.0,0 STARLINK-3360,1 51149U 22005AX  23200.74961013 -.00000945  00000-0 -41331-4 0  9993,2 51149  53.2182 316.4145 0001080  99.2373 260.8741 15.08838311 84186,6917.886,95.438,540.498,539.003,0.0
51149.0,STARLINK-3360,PAYLOAD,2023-07-20 13:04:03,15.08845304,0.0001237,53.2185,312.8466,108.6107,251.5019,0.00010125,1.324e-05,0.0,0 STARLINK-3360,1 51149U 22005AX  23201.54448393  .00001324  00000-0  10125-3 0  9999,2 51149  53.2185 312.8466 0001237 108.6107 251.5019 15.08845304 84308,6917.864,95.437,540.585,538.873,0.0
51149.0,STARLINK-3360,PAYLOAD,2023-07-21 08:08:41,15.08839663,0.0001143,53.2187,309.2785,108.0585,252.0532,0.00013954,1.934e-05,0.0,0 STARLINK-3360,1 51149U 22005AX  23202.33936754  .00001934  00000-0  13954-3 0  9990,2 51149  53.2187 309.2785 0001143 108.0585 252.0532 15.08839663 84424,6917.881,95.438,540.537,538.956,0.0
51149.0,STARLINK-3360,PAYLOAD,2023-07-24 06:05:39,15.08841787,0.0001119,53.2178,296.1947,88.3319,271.7801,0.0001069,1.414e-05,0.0,0 STARLINK-3360,1 51149U 22005AX  23205.25392997  .00001414  00000-0  10690-3 0  9996,2 51149  53.2178 296.1947 0001119  88.3319 271.7801 15.08841787 83758,6917.875,95.437,540.514,538.966,0.0
51149.0,STARLINK-3360,PAYLOAD,2023-07-25 12:17:59,15.08840844,9.52e-05,53.2166,290.5439,87.8102,272.2999,4.6657e-05,4.55e-06,0.0,0 STARLINK-3360,1 51149U 22005AX  23206.51249237  .00000455  00000-0  46657-4 0  9991,2 51149  53.2166 290.5439 0000952  87.8102 272.2999 15.08840844 83945,6917.878,95.438,540.401,539.084,0.0
51149.0,STARLINK-3360,PAYLOAD,2023-07-26 05:47:13,15.08839608,0.000102,53.2169,287.2732,95.9643,264.1465,6.6312e-05,7.68e-06,0.0,0 STARLINK-3360,1 51149U 22005AX  23207.24113218  .00000768  00000-0  66312-4 0  9998,2 51149  53.2169 287.2732 0001020  95.9643 264.1465 15.08839608 84051,6917.882,95.438,540.452,539.041,0.0
51149.0,STARLINK-3360,PAYLOAD,2023-07-26 21:41:04,15.08848057,0.0001107,53.2168,284.2999,100.4345,259.6771,0.00016343,2.315e-05,0.0,0 STARLINK-3360,1 51149U 22005AX  23207.90352175  .00002315  00000-0  16343-3 0  9996,2 51149  53.2168 284.2999 0001107 100.4345 259.6771 15.08848057 84157,6917.856,95.437,540.487,538.955,0.0
51149.0,STARLINK-3360,PAYLOAD,2023-07-27 05:38:00,15.0883626,0.0001215,53.2167,282.8133,95.0954,265.0177,5.6947e-05,6.18e-06,0.0,0 STARLINK-3360,1 51149U 22005AX  23208.23473279  .00000618  00000-0  56947-4 0  9991,2 51149  53.2167 282.8133 0001215  95.0954 265.0177 15.08836260 85318,6917.892,95.438,540.597,538.916,0.0
